STARLINK-3697           
1 51962U 22025G   26068.20356615 -.00000302  00000+0  18600-5 0  9999
2 51962  53.1570  26.3329 0001382  87.4855 272.6303 15.29354232220948
LIME                    
1 62648U 25009AR  26068.73906781  .00013254  00000+0  47723-3 0  9995
2 62648  97.3985 151.4831 0001635  35.9029 324.2320 15.28703313 63766
